GSAT0222 (GALILEO 26)   
1 43565U 18060B   23114.57811012 -.00000108  00000+0  00000+0 0  9992
2 43565  57.2629  12.7785 0003585 324.2310  35.7759  1.70475505 29610
GSAT0219 (GALILEO 23)   
1 43566U 18060C   23114.79862468 -.00000108  00000+0  00000+0 0  9998
2 43566  57.2635  12.7745 0003333 328.8575  31.1537  1.70475569 29599
GSAT0220 (GALILEO 24)   
1 43567U 18060D   23115.60555527 -.00000107  00000+0  00000+0 0  9994
2 43567  57.2638  12.7530 0003314 321.0427  38.9645  1.70475616 29582
BEIDOU-3 M13            
1 43622U 18072A   23114.47862625  .00000006  00000+0  00000+0 0  9990
2 43622  55.6794 100.9132 0009137 291.1611 133.7167  1.86231499 31243
BEIDOU-3 M14            
1 43623U 18072B   23114.36169354  .00000005  00000+0  00000+0 0  9997
2 43623  55.6810 100.9097 0006814 308.7510 127.9677  1.86231491 31248
GPS BIII-1              
1 43873U 18109A   23115.52413865  .00000027  00000+0  00000+0 0  9997
2 43873  55.1576 137.5711 0024061 194.7556 335.1107  2.00562595 32033
METEOR-M2 2             
1 44387U 19038A   23116.16785785  .00000310  00000+0  15506-3 0  9990
2 44387  98.7714  80.1904 0002368  91.3401 268.8072 14.23776046197902
GPS BIII-2              
1 44506U 19056A   23115.18243917 -.00000111  00000+0  00000+0 0  9999
2 44506  55.7912  16.6735 0031073 184.1235 359.9848  2.00563706 27022
BEIDOU-3 M23            
1 44542U 19061A   23114.62665439 -.00000007  00000+0  00000+0 0  9994
2 44542  54.5088 221.5542 0007251 349.1740  10.8237  1.86231224 24382
BEIDOU-3 M24            
1 44543U 19061B   23114.93337605 -.00000010  00000+0  00000+0 0  9994
2 44543  54.5075 221.5127 0004364 342.4992 134.8508  1.86231615 24387
BEIDOU-3 M21            
1 44793U 19078A   23114.22929438 -.00000103  00000+0  10000-3 0  9990
2 44793  54.8335 339.9029 0007446  20.4009 177.1612  1.86232132 23231
BEIDOU-3 M22            
1 44794U 19078B   23113.24294311 -.00000104  00000+0  00000+0 0  9993
2 44794  54.8079 339.9219 0005211  17.0010 151.4806  1.86232627 23217
ELEKTRO-L 3             
1 44903U 19095A   23114.73452063 -.00000100  00000+0  00000+0 0  9995
2 44903   0.0401 291.9501 0000463 142.1395 118.7899  1.00273608 12162
GPS BIII-3              
1 45854U 20041A   23115.00191558 -.00000031  00000+0  00000+0 0  9997
2 45854  55.7742  73.9539 0031040 187.2990 169.3813  2.00566170 20985
GPS BIII-4              
1 46826U 20078A   23115.54282076 -.00000009  00000+0  00000+0 0  9997
2 46826  54.3804 257.4186 0030508 189.4826 173.5391  2.00563310 18478
GSAT0223 (GALILEO 27)   
1 49809U 21116A   23115.76733321 -.00000106  00000+0  00000+0 0  9991
2 49809  57.2554  12.6454 0000170  80.5662 108.9356  1.70475748  8594
GSAT0224 (GALILEO 28)   
1 49810U 21116B   23114.39257660 -.00000108  00000+0  00000+0 0  9990
2 49810  57.2561  12.6805 0000850  42.2211 136.0397  1.70475688  8606
GOES 18                 
1 51850U 22021A   23115.71831521  .00000094  00000+0  00000+0 0  9997
2 51850   0.0068  69.3946 0000320 275.2402 350.4214  1.00271312  4289
